[{"OBJECT_NAME":"STARLINK-31643","OBJECT_ID":"2024-062Q","EPOCH":"2026-03-09T21:57:01.989504","MEAN_MOTION":15.30192367,"ECCENTRICITY":0.00012803,"INCLINATION":53.1592,"RA_OF_ASC_NODE":254.7707,"ARG_OF_PERICENTER":112.2795,"MEAN_ANOMALY":247.8342,"EPHEMERIS_TYPE":0,"CLASSIFICATION_TYPE":"U","NORAD_CAT_ID":59388,"ELEMENT_SET_NO":999,"REV_AT_EPOCH":10970,"BSTAR":3.037579e-6,"MEAN_MOTION_DOT":-2.69e-6,"MEAN_MOTION_DDOT":0},{"OBJECT_NAME":"TRANSPORTER-12 OBJECT AZ","OBJECT_ID":"2025-009AZ","EPOCH":"2026-03-09T17:02:46.667040","MEAN_MOTION":15.30349724,"ECCENTRICITY":9.87e-5,"INCLINATION":97.3981,"RA_OF_ASC_NODE":151.9913,"ARG_OF_PERICENTER":45.3581,"MEAN_ANOMALY":314.774,"EPHEMERIS_TYPE":0,"CLASSIFICATION_TYPE":"U","NORAD_CAT_ID":62656,"ELEMENT_SET_NO":999,"REV_AT_EPOCH":6379,"BSTAR":0.00054902545,"MEAN_MOTION_DOT":0.00016057,"MEAN_MOTION_DDOT":0}]
